<?xml version="1.0" encoding="UTF-8"?>
<ndm xmlns:xsi="http://www.w3.org/2001/XMLSchema-instance" xsi:noNamespaceSchemaLocation="https://sanaregistry.org/r/ndmxml_unqualified/ndmxml-2.0.0-master-2.0.xsd">
<omm id="CCSDS_OMM_VERS" version="2.0">
<header><CREATION_DATE/><ORIGINATOR/></header><body><segment><metadata><OBJECT_NAME>IRIDIUM 150</OBJECT_NAME><OBJECT_ID>2018-030J</OBJECT_ID><CENTER_NAME>EARTH</CENTER_NAME><REF_FRAME>TEME</REF_FRAME><TIME_SYSTEM>UTC</TIME_SYSTEM><MEAN_ELEMENT_THEORY>SGP4</MEAN_ELEMENT_THEORY></metadata><data><meanElements><EPOCH>2024-01-14T01:33:11.454624</EPOCH><MEAN_MOTION>14.34220832</MEAN_MOTION><ECCENTRICITY>.0001841</ECCENTRICITY><INCLINATION>86.3979</INCLINATION><RA_OF_ASC_NODE>300.3820</RA_OF_ASC_NODE><ARG_OF_PERICENTER>74.8782</ARG_OF_PERICENTER><MEAN_ANOMALY>285.2618</MEAN_ANOMALY></meanElements><tleParameters><EPHEMERIS_TYPE>0</EPHEMERIS_TYPE><CLASSIFICATION_TYPE>U</CLASSIFICATION_TYPE><NORAD_CAT_ID>43257</NORAD_CAT_ID><ELEMENT_SET_NO>999</ELEMENT_SET_NO><REV_AT_EPOCH>30331</REV_AT_EPOCH><BSTAR>.18628E-3</BSTAR><MEAN_MOTION_DOT>.541E-5</MEAN_MOTION_DOT><MEAN_MOTION_DDOT>0</MEAN_MOTION_DDOT></tleParameters></data></segment></body></omm>
<omm id="CCSDS_OMM_VERS" version="2.0">
<header><CREATION_DATE/><ORIGINATOR/></header><body><segment><metadata><OBJECT_NAME>IRIDIUM 143</OBJECT_NAME><OBJECT_ID>2018-030K</OBJECT_ID><CENTER_NAME>EARTH</CENTER_NAME><REF_FRAME>TEME</REF_FRAME><TIME_SYSTEM>UTC</TIME_SYSTEM><MEAN_ELEMENT_THEORY>SGP4</MEAN_ELEMENT_THEORY></metadata><data><meanElements><EPOCH>2024-01-13T20:04:23.043648</EPOCH><MEAN_MOTION>14.34217781</MEAN_MOTION><ECCENTRICITY>.0001736</ECCENTRICITY><INCLINATION>86.3983</INCLINATION><RA_OF_ASC_NODE>300.5350</RA_OF_ASC_NODE><ARG_OF_PERICENTER>82.9272</ARG_OF_PERICENTER><MEAN_ANOMALY>277.2122</MEAN_ANOMALY></meanElements><tleParameters><EPHEMERIS_TYPE>0</EPHEMERIS_TYPE><CLASSIFICATION_TYPE>U</CLASSIFICATION_TYPE><NORAD_CAT_ID>43258</NORAD_CAT_ID><ELEMENT_SET_NO>999</ELEMENT_SET_NO><REV_AT_EPOCH>30322</REV_AT_EPOCH><BSTAR>.14641E-3</BSTAR><MEAN_MOTION_DOT>.43E-5</MEAN_MOTION_DOT><MEAN_MOTION_DDOT>0</MEAN_MOTION_DDOT></tleParameters></data></segment></body></omm>
<omm id="CCSDS_OMM_VERS" version="2.0">
<header><CREATION_DATE/><ORIGINATOR/></header><body><segment><metadata><OBJECT_NAME>IRIDIUM 161</OBJECT_NAME><OBJECT_ID>2018-047C</OBJECT_ID><CENTER_NAME>EARTH</CENTER_NAME><REF_FRAME>TEME</REF_FRAME><TIME_SYSTEM>UTC</TIME_SYSTEM><MEAN_ELEMENT_THEORY>SGP4</MEAN_ELEMENT_THEORY></metadata><data><meanElements><EPOCH>2024-01-14T03:51:40.756896</EPOCH><MEAN_MOTION>14.43301182</MEAN_MOTION><ECCENTRICITY>.0002196</ECCENTRICITY><INCLINATION>86.4486</INCLINATION><RA_OF_ASC_NODE>98.3821</RA_OF_ASC_NODE><ARG_OF_PERICENTER>93.8114</ARG_OF_PERICENTER><MEAN_ANOMALY>266.3338</MEAN_ANOMALY></meanElements><tleParameters><EPHEMERIS_TYPE>0</EPHEMERIS_TYPE><CLASSIFICATION_TYPE>U</CLASSIFICATION_TYPE><NORAD_CAT_ID>43478</NORAD_CAT_ID><ELEMENT_SET_NO>999</ELEMENT_SET_NO><REV_AT_EPOCH>29748</REV_AT_EPOCH><BSTAR>.22165E-3</BSTAR><MEAN_MOTION_DOT>.766E-5</MEAN_MOTION_DOT><MEAN_MOTION_DDOT>0</MEAN_MOTION_DDOT></tleParameters></data></segment></body></omm>
<omm id="CCSDS_OMM_VERS" version="2.0">
<header><CREATION_DATE/><ORIGINATOR/></header><body><segment><metadata><OBJECT_NAME>IRIDIUM 152</OBJECT_NAME><OBJECT_ID>2018-047D</OBJECT_ID><CENTER_NAME>EARTH</CENTER_NAME><REF_FRAME>TEME</REF_FRAME><TIME_SYSTEM>UTC</TIME_SYSTEM><MEAN_ELEMENT_THEORY>SGP4</MEAN_ELEMENT_THEORY></metadata><data><meanElements><EPOCH>2024-01-14T03:47:26.045376</EPOCH><MEAN_MOTION>14.34217062</MEAN_MOTION><ECCENTRICITY>.0001912</ECCENTRICITY><INCLINATION>86.3958</INCLINATION><RA_OF_ASC_NODE>98.2420</RA_OF_ASC_NODE><ARG_OF_PERICENTER>100.2355</ARG_OF_PERICENTER><MEAN_ANOMALY>259.9056</MEAN_ANOMALY></meanElements><tleParameters><EPHEMERIS_TYPE>0</EPHEMERIS_TYPE><CLASSIFICATION_TYPE>U</CLASSIFICATION_TYPE><NORAD_CAT_ID>43479</NORAD_CAT_ID><ELEMENT_SET_NO>999</ELEMENT_SET_NO><REV_AT_EPOCH>29564</REV_AT_EPOCH><BSTAR>.31111E-4</BSTAR><MEAN_MOTION_DOT>.107E-5</MEAN_MOTION_DOT><MEAN_MOTION_DDOT>0</MEAN_MOTION_DDOT></tleParameters></data></segment></body></omm>
<omm id="CCSDS_OMM_VERS" version="2.0">
<header><CREATION_DATE/><ORIGINATOR/></header><body><segment><metadata><OBJECT_NAME>IRIDIUM 147</OBJECT_NAME><OBJECT_ID>2018-047E</OBJECT_ID><CENTER_NAME>EARTH</CENTER_NAME><REF_FRAME>TEME</REF_FRAME><TIME_SYSTEM>UTC</TIME_SYSTEM><MEAN_ELEMENT_THEORY>SGP4</MEAN_ELEMENT_THEORY></metadata><data><meanElements><EPOCH>2024-01-14T03:56:34.076256</EPOCH><MEAN_MOTION>14.34216349</MEAN_MOTION><ECCENTRICITY>.0002257</ECCENTRICITY><INCLINATION>86.3959</INCLINATION><RA_OF_ASC_NODE>98.2290</RA_OF_ASC_NODE><ARG_OF_PERICENTER>91.9210</ARG_OF_PERICENTER><MEAN_ANOMALY>268.2245</MEAN_ANOMALY></meanElements><tleParameters><EPHEMERIS_TYPE>0</EPHEMERIS_TYPE><CLASSIFICATION_TYPE>U</CLASSIFICATION_TYPE><NORAD_CAT_ID>43480</NORAD_CAT_ID><ELEMENT_SET_NO>999</ELEMENT_SET_NO><REV_AT_EPOCH>29563</REV_AT_EPOCH><BSTAR>.11916E-4</BSTAR><MEAN_MOTION_DOT>.53E-6</MEAN_MOTION_DOT><MEAN_MOTION_DDOT>0</MEAN_MOTION_DDOT></tleParameters></data></segment></body></omm>
<omm id="CCSDS_OMM_VERS" version="2.0">
<header><CREATION_DATE/><ORIGINATOR/></header><body><segment><metadata><OBJECT_NAME>IRIDIUM 110</OBJECT_NAME><OBJECT_ID>2018-047F</OBJECT_ID><CENTER_NAME>EARTH</CENTER_NAME><REF_FRAME>TEME</REF_FRAME><TIME_SYSTEM>UTC</TIME_SYSTEM><MEAN_ELEMENT_THEORY>SGP4</MEAN_ELEMENT_THEORY></metadata><data><meanElements><EPOCH>2024-01-14T05:46:10.305984</EPOCH><MEAN_MOTION>14.34219016</MEAN_MOTION><ECCENTRICITY>.0002398</ECCENTRICITY><INCLINATION>86.3963</INCLINATION><RA_OF_ASC_NODE>98.2665</RA_OF_ASC_NODE><ARG_OF_PERICENTER>87.5785</ARG_OF_PERICENTER><MEAN_ANOMALY>272.5685</MEAN_ANOMALY></meanElements><tleParameters><EPHEMERIS_TYPE>0</EPHEMERIS_TYPE><CLASSIFICATION_TYPE>U</CLASSIFICATION_TYPE><NORAD_CAT_ID>43481</NORAD_CAT_ID><ELEMENT_SET_NO>999</ELEMENT_SET_NO><REV_AT_EPOCH>29563</REV_AT_EPOCH><BSTAR>.12442E-3</BSTAR><MEAN_MOTION_DOT>.368E-5</MEAN_MOTION_DOT><MEAN_MOTION_DDOT>0</MEAN_MOTION_DDOT></tleParameters></data></segment></body></omm>
<omm id="CCSDS_OMM_VERS" version="2.0">
<header><CREATION_DATE/><ORIGINATOR/></header><body><segment><metadata><OBJECT_NAME>IRIDIUM 162</OBJECT_NAME><OBJECT_ID>2018-047G</OBJECT_ID><CENTER_NAME>EARTH</CENTER_NAME><REF_FRAME>TEME</REF_FRAME><TIME_SYSTEM>UTC</TIME_SYSTEM><MEAN_ELEMENT_THEORY>SGP4</MEAN_ELEMENT_THEORY></metadata><data><meanElements><EPOCH>2024-01-13T17:43:40.538496</EPOCH><MEAN_MOTION>14.43298788</MEAN_MOTION><ECCENTRICITY>.000219</ECCENTRICITY><INCLINATION>86.4485</INCLINATION><RA_OF_ASC_NODE>98.4607</RA_OF_ASC_NODE><ARG_OF_PERICENTER>93.7973</ARG_OF_PERICENTER><MEAN_ANOMALY>266.3478</MEAN_ANOMALY></meanElements><tleParameters><EPHEMERIS_TYPE>0</EPHEMERIS_TYPE><CLASSIFICATION_TYPE>U</CLASSIFICATION_TYPE><NORAD_CAT_ID>43482</NORAD_CAT_ID><ELEMENT_SET_NO>999</ELEMENT_SET_NO><REV_AT_EPOCH>29741</REV_AT_EPOCH><BSTAR>.21493E-3</BSTAR><MEAN_MOTION_DOT>.743E-5</MEAN_MOTION_DOT><MEAN_MOTION_DDOT>0</MEAN_MOTION_DDOT></tleParameters></data></segment></body></omm>
<omm id="CCSDS_OMM_VERS" version="2.0">
<header><CREATION_DATE/><ORIGINATOR/></header><body><segment><metadata><OBJECT_NAME>IRIDIUM 160</OBJECT_NAME><OBJECT_ID>2018-061A</OBJECT_ID><CENTER_NAME>EARTH</CENTER_NAME><REF_FRAME>TEME</REF_FRAME><TIME_SYSTEM>UTC</TIME_SYSTEM><MEAN_ELEMENT_THEORY>SGP4</MEAN_ELEMENT_THEORY></metadata><data><meanElements><EPOCH>2024-01-13T13:23:58.505856</EPOCH><MEAN_MOTION>14.34216875</MEAN_MOTION><ECCENTRICITY>.000234</ECCENTRICITY><INCLINATION>86.3943</INCLINATION><RA_OF_ASC_NODE>66.9013</RA_OF_ASC_NODE><ARG_OF_PERICENTER>104.4380</ARG_OF_PERICENTER><MEAN_ANOMALY>255.7075</MEAN_ANOMALY></meanElements><tleParameters><EPHEMERIS_TYPE>0</EPHEMERIS_TYPE><CLASSIFICATION_TYPE>U</CLASSIFICATION_TYPE><NORAD_CAT_ID>43569</NORAD_CAT_ID><ELEMENT_SET_NO>999</ELEMENT_SET_NO><REV_AT_EPOCH>28643</REV_AT_EPOCH><BSTAR>-.69949E-4</BSTAR><MEAN_MOTION_DOT>-.176E-5</MEAN_MOTION_DOT><MEAN_MOTION_DDOT>0</MEAN_MOTION_DDOT></tleParameters></data></segment></body></omm>

</ndm>
