IRIDIUM 150             
1 43257U 18030J   24014.06471591  .00000541  00000+0  18628-3 0  9994
2 43257  86.3979 300.3820 0001841  74.8782 285.2618 14.34220832303312
IRIDIUM 143             
1 43258U 18030K   24013.83637782  .00000430  00000+0  14641-3 0  9993
2 43258  86.3983 300.5350 0001736  82.9272 277.2122 14.34217781303225
IRIDIUM 161             
1 43478U 18047C   24014.16088839  .00000766  00000+0  22165-3 0  9997
2 43478  86.4486  98.3821 0002196  93.8114 266.3338 14.43301182297487
IRIDIUM 152             
1 43479U 18047D   24014.15794034  .00000107  00000+0  31111-4 0  9999
2 43479  86.3958  98.2420 0001912 100.2355 259.9056 14.34217062295644
IRIDIUM 147             
1 43480U 18047E   24014.16428329  .00000053  00000+0  11916-4 0  9994
2 43480  86.3959  98.2290 0002257  91.9210 268.2245 14.34216349295630
IRIDIUM 110             
1 43481U 18047F   24014.24039706  .00000368  00000+0  12442-3 0  9994
2 43481  86.3963  98.2665 0002398  87.5785 272.5685 14.34219016295636
IRIDIUM 162             
1 43482U 18047G   24013.73866364  .00000743  00000+0  21493-3 0  9999
2 43482  86.4485  98.4607 0002190  93.7973 266.3478 14.43298788297415
IRIDIUM 160             
1 43569U 18061A   24013.55831604 -.00000176  00000+0 -69949-4 0  9991
2 43569  86.3943  66.9013 0002340 104.4380 255.7075 14.34216875286431
